{
  "type": "FeatureCollection",
  "features": [
    {
      "type": "Feature",
      "properties": {
        "norad_id": 64751,
        "name": "PROGRESS-MS 31",
        "group": "stations",
        "lat": 14.425352386329523,
        "lon": -77.18318780423766,
        "alt_km": 416.96543733271756,
        "timestamp": "2025-12-18T08:58:42.135970+00:00",
        "meta_object_name": "PROGRESS-MS 31",
        "meta_object_id": "2025-146A",
        "meta_epoch": "2025-12-17T19:54:10.621440",
        "meta_mean_motion": 15.49640803,
        "meta_eccentricity": 0.00031686,
        "meta_inclination": 51.6309,
        "meta_ra_of_asc_node": 117.2752,
        "meta_arg_of_pericenter": 263.8701,
        "meta_mean_anomaly": 96.1927,
        "meta_ephemeris_type": 0,
        "meta_classification_type": "U",
        "meta_norad_cat_id": 64751,
        "meta_element_set_no": 999,
        "meta_rev_at_epoch": 675,
        "meta_bstar": 0.00014328078,
        "meta_mean_motion_dot": 7.629e-05,
        "meta_mean_motion_ddot": 0,
        "tle_line1": "1 64751U 25146A   25351.82928960  .00007629  00000+0  14328-3 0  9995",
        "tle_line2": "2 64751  51.6309 117.2752 0003168 263.8701  96.1927 15.49640803  6751"
      },
      "geometry": {
        "type": "Point",
        "coordinates": [
          -77.18318780423766,
          14.425352386329523
        ]
      }
    },
    {
      "type": "Feature",
      "properties": {
        "norad_id": 64786,
        "name": "TIANZHOU-9",
        "group": "stations",
        "lat": 30.097089527967587,
        "lon": 121.47320798068785,
        "alt_km": 381.1450565832447,
        "timestamp": "2025-12-18T08:58:42.135980+00:00",
        "meta_object_name": "TIANZHOU-9",
        "meta_object_id": "2025-149A",
        "meta_epoch": "2025-12-17T17:03:03.263616",
        "meta_mean_motion": 15.59389869,
        "meta_eccentricity": 0.00077031,
        "meta_inclination": 41.4683,
        "meta_ra_of_asc_node": 346.526,
        "meta_arg_of_pericenter": 74.1787,
        "meta_mean_anomaly": 285.99,
        "meta_ephemeris_type": 0,
        "meta_classification_type": "U",
        "meta_norad_cat_id": 64786,
        "meta_element_set_no": 999,
        "meta_rev_at_epoch": 25530,
        "meta_bstar": 0.00025361987,
        "meta_mean_motion_dot": 0.0002035,
        "meta_mean_motion_ddot": 0,
        "tle_line1": "1 64786U 25149A   25351.71045444  .00020350  00000+0  25362-3 0  9997",
        "tle_line2": "2 64786  41.4683 346.5260 0007703  74.1787 285.9900 15.59389869255307"
      },
      "geometry": {
        "type": "Point",
        "coordinates": [
          121.47320798068785,
          30.097089527967587
        ]
      }
    },
    {
      "type": "Feature",
      "properties": {
        "norad_id": 65077,
        "name": "CREW DRAGON 11",
        "group": "stations",
        "lat": 14.425351394217584,
        "lon": -77.18318694938198,
        "alt_km": 416.9654374381653,
        "timestamp": "2025-12-18T08:58:42.135990+00:00",
        "meta_object_name": "CREW DRAGON 11",
        "meta_object_id": "2025-166A",
        "meta_epoch": "2025-12-17T19:54:10.621440",
        "meta_mean_motion": 15.49640803,
        "meta_eccentricity": 0.00031686,
        "meta_inclination": 51.6309,
        "meta_ra_of_asc_node": 117.2752,
        "meta_arg_of_pericenter": 263.8701,
        "meta_mean_anomaly": 96.1927,
        "meta_ephemeris_type": 0,
        "meta_classification_type": "U",
        "meta_norad_cat_id": 65077,
        "meta_element_set_no": 999,
        "meta_rev_at_epoch": 214,
        "meta_bstar": 0.00014328078,
        "meta_mean_motion_dot": 7.629e-05,
        "meta_mean_motion_ddot": 0,
        "tle_line1": "1 65077U 25166A   25351.82928960  .00007629  00000+0  14328-3 0  9999",
        "tle_line2": "2 65077  51.6309 117.2752 0003168 263.8701  96.1927 15.49640803  2142"
      },
      "geometry": {
        "type": "Point",
        "coordinates": [
          -77.18318694938198,
          14.425351394217584
        ]
      }
    },
    {
      "type": "Feature",
      "properties": {
        "norad_id": 65304,
        "name": "DRAGON CRS-33",
        "group": "stations",
        "lat": 14.42535089816162,
        "lon": -77.18318652195414,
        "alt_km": 416.9654374908896,
        "timestamp": "2025-12-18T08:58:42.136000+00:00",
        "meta_object_name": "DRAGON CRS-33",
        "meta_object_id": "2025-186A",
        "meta_epoch": "2025-12-17T19:54:10.621440",
        "meta_mean_motion": 15.49640803,
        "meta_eccentricity": 0.00031686,
        "meta_inclination": 51.6309,
        "meta_ra_of_asc_node": 117.2752,
        "meta_arg_of_pericenter": 263.8701,
        "meta_mean_anomaly": 96.1927,
        "meta_ephemeris_type": 0,
        "meta_classification_type": "U",
        "meta_norad_cat_id": 65304,
        "meta_element_set_no": 999,
        "meta_rev_at_epoch": 11,
        "meta_bstar": 0.00014328078,
        "meta_mean_motion_dot": 7.629e-05,
        "meta_mean_motion_ddot": 0,
        "tle_line1": "1 65304U 25186A   25351.82928960  .00007629  00000+0  14328-3 0  9994",
        "tle_line2": "2 65304  51.6309 117.2752 0003168 263.8701  96.1927 15.49640803   110"
      },
      "geometry": {
        "type": "Point",
        "coordinates": [
          -77.18318652195414,
          14.42535089816162
        ]
      }
    },
    {
      "type": "Feature",
      "properties": {
        "norad_id": 65586,
        "name": "PROGRESS-MS 32",
        "group": "stations",
        "lat": 14.425350402105659,
        "lon": -77.18318609452633,
        "alt_km": 416.9654375436112,
        "timestamp": "2025-12-18T08:58:42.136010+00:00",
        "meta_object_name": "PROGRESS-MS 32",
        "meta_object_id": "2025-204A",
        "meta_epoch": "2025-12-17T19:54:10.621440",
        "meta_mean_motion": 15.49640803,
        "meta_eccentricity": 0.00031686,
        "meta_inclination": 51.6309,
        "meta_ra_of_asc_node": 117.2752,
        "meta_arg_of_pericenter": 263.8701,
        "meta_mean_anomaly": 96.1927,
        "meta_ephemeris_type": 0,
        "meta_classification_type": "U",
        "meta_norad_cat_id": 65586,
        "meta_element_set_no": 999,
        "meta_rev_at_epoch": 27,
        "meta_bstar": 0.00014328078,
        "meta_mean_motion_dot": 7.629e-05,
        "meta_mean_motion_ddot": 0,
        "tle_line1": "1 65586U 25204A   25351.82928960  .00007629  00000+0  14328-3 0  9997",
        "tle_line2": "2 65586  51.6309 117.2752 0003168 263.8701  96.1927 15.49640803   279"
      },
      "geometry": {
        "type": "Point",
        "coordinates": [
          -77.18318609452633,
          14.425350402105659
        ]
      }
    },
    {
      "type": "Feature",
      "properties": {
        "norad_id": 65616,
        "name": "CYGNUS NG-23",
        "group": "stations",
        "lat": 14.425349806838735,
        "lon": -77.18318558161312,
        "alt_km": 416.96543760687837,
        "timestamp": "2025-12-18T08:58:42.136022+00:00",
        "meta_object_name": "CYGNUS NG-23",
        "meta_object_id": "2025-208A",
        "meta_epoch": "2025-12-17T19:54:10.621440",
        "meta_mean_motion": 15.49640803,
        "meta_eccentricity": 0.00031686,
        "meta_inclination": 51.6309,
        "meta_ra_of_asc_node": 117.2752,
        "meta_arg_of_pericenter": 263.8701,
        "meta_mean_anomaly": 96.1927,
        "meta_ephemeris_type": 0,
        "meta_classification_type": "U",
        "meta_norad_cat_id": 65616,
        "meta_element_set_no": 999,
        "meta_rev_at_epoch": 22,
        "meta_bstar": 0.00014328078,
        "meta_mean_motion_dot": 7.629e-05,
        "meta_mean_motion_ddot": 0,
        "tle_line1": "1 65616U 25208A   25351.82928960  .00007629  00000+0  14328-3 0  9995",
        "tle_line2": "2 65616  51.6309 117.2752 0003168 263.8701  96.1927 15.49640803   228"
      },
      "geometry": {
        "type": "Point",
        "coordinates": [
          -77.18318558161312,
          14.425349806838735
        ]
      }
    },
    {
      "type": "Feature",
      "properties": {
        "norad_id": 65729,
        "name": "DRAGONFLY",
        "group": "stations",
        "lat": -48.40061429462278,
        "lon": -9.928492301099777,
        "alt_km": 350.09248345074775,
        "timestamp": "2025-12-18T08:58:42.136032+00:00",
        "meta_object_name": "DRAGONFLY",
        "meta_object_id": "1998-067XH",
        "meta_epoch": "2025-12-17T13:37:12.344736",
        "meta_mean_motion": 15.73531298,
        "meta_eccentricity": 0.00072061,
        "meta_inclination": 51.6243,
        "meta_ra_of_asc_node": 111.0116,
        "meta_arg_of_pericenter": 308.514,
        "meta_mean_anomaly": 51.5212,
        "meta_ephemeris_type": 0,
        "meta_classification_type": "U",
        "meta_norad_cat_id": 65729,
        "meta_element_set_no": 999,
        "meta_rev_at_epoch": 1392,
        "meta_bstar": 0.0011077639,
        "meta_mean_motion_dot": 0.00160588,
        "meta_mean_motion_ddot": 0,
        "tle_line1": "1 65729U 98067XH  25351.56750399  .00160588  00000+0  11078-2 0  9995",
        "tle_line2": "2 65729  51.6243 111.0116 0007206 308.5140  51.5212 15.73531298 13924"
      },
      "geometry": {
        "type": "Point",
        "coordinates": [
          -9.928492301099777,
          -48.40061429462278
        ]
      }
    }
  ]
}